CCSDS_OMM_VERS = 2.0
CREATION_DATE  = 
ORIGINATOR     = 

OBJECT_NAME    = IDEFIX & ARIANE 42P R/B
OBJECT_ID      = 2002-021B
CENTER_NAME    = EARTH
REF_FRAME      = TEME
TIME_SYSTEM    = UTC
MEAN_ELEMENT_THEORY = SGP/SGP4

EPOCH          = 2026-02-21T16:39:11.392704
MEAN_MOTION    = 14.31013616
ECCENTRICITY   = .0010793
INCLINATION    = 98.5855
RA_OF_ASC_NODE = 351.4929
ARG_OF_PERICENTER = 231.9551
MEAN_ANOMALY   = 128.0659

EPHEMERIS_TYPE = 0
CLASSIFICATION_TYPE = U
NORAD_CAT_ID   = 27422
ELEMENT_SET_NO = 999
REV_AT_EPOCH   = 24173
BSTAR          = .11221E-3
MEAN_MOTION_DOT = .252E-5
MEAN_MOTION_DDOT = 0

CCSDS_OMM_VERS = 2.0
CREATION_DATE  = 
ORIGINATOR     = 

OBJECT_NAME    = AQUA
OBJECT_ID      = 2002-022A
CENTER_NAME    = EARTH
REF_FRAME      = TEME
TIME_SYSTEM    = UTC
MEAN_ELEMENT_THEORY = SGP/SGP4

EPOCH          = 2026-02-21T20:50:02.367744
MEAN_MOTION    = 14.61933631
ECCENTRICITY   = .000102
INCLINATION    = 98.4146
RA_OF_ASC_NODE = 19.9486
ARG_OF_PERICENTER = 47.2205
MEAN_ANOMALY   = 340.3777

EPHEMERIS_TYPE = 0
CLASSIFICATION_TYPE = U
NORAD_CAT_ID   = 27424
ELEMENT_SET_NO = 999
REV_AT_EPOCH   = 26642
BSTAR          = .18836E-3
MEAN_MOTION_DOT = .894E-5
MEAN_MOTION_DDOT = 0

CCSDS_OMM_VERS = 2.0
CREATION_DATE  = 
ORIGINATOR     = 

OBJECT_NAME    = CZ-4B R/B
OBJECT_ID      = 2002-024C
CENTER_NAME    = EARTH
REF_FRAME      = TEME
TIME_SYSTEM    = UTC
MEAN_ELEMENT_THEORY = SGP/SGP4

EPOCH          = 2026-02-21T17:49:21.867744
MEAN_MOTION    = 14.14544570
ECCENTRICITY   = .0051037
INCLINATION    = 98.8878
RA_OF_ASC_NODE = 106.2269
ARG_OF_PERICENTER = 68.9257
MEAN_ANOMALY   = 40.0490

EPHEMERIS_TYPE = 0
CLASSIFICATION_TYPE = U
NORAD_CAT_ID   = 27432
ELEMENT_SET_NO = 999
REV_AT_EPOCH   = 22698
BSTAR          = .2919E-4
MEAN_MOTION_DOT = .13E-6
MEAN_MOTION_DDOT = 0

CCSDS_OMM_VERS = 2.0
CREATION_DATE  = 
ORIGINATOR     = 

OBJECT_NAME    = MIDORI II (ADEOS-II)
OBJECT_ID      = 2002-056A
CENTER_NAME    = EARTH
REF_FRAME      = TEME
TIME_SYSTEM    = UTC
MEAN_ELEMENT_THEORY = SGP/SGP4

EPOCH          = 2026-02-21T11:49:13.649376
MEAN_MOTION    = 14.29271781
ECCENTRICITY   = .0002059
INCLINATION    = 98.7741
RA_OF_ASC_NODE = 10.8613
ARG_OF_PERICENTER = 65.4406
MEAN_ANOMALY   = 294.6990

EPHEMERIS_TYPE = 0
CLASSIFICATION_TYPE = U
NORAD_CAT_ID   = 27597
ELEMENT_SET_NO = 999
REV_AT_EPOCH   = 20798
BSTAR          = .11204E-3
MEAN_MOTION_DOT = .24E-5
MEAN_MOTION_DDOT = 0

CCSDS_OMM_VERS = 2.0
CREATION_DATE  = 
ORIGINATOR     = 

OBJECT_NAME    = H-2A R/B
OBJECT_ID      = 2002-056E
CENTER_NAME    = EARTH
REF_FRAME      = TEME
TIME_SYSTEM    = UTC
MEAN_ELEMENT_THEORY = SGP/SGP4

EPOCH          = 2026-02-21T12:38:38.582016
MEAN_MOTION    = 14.33748645
ECCENTRICITY   = .0069502
INCLINATION    = 98.3174
RA_OF_ASC_NODE = 13.5108
ARG_OF_PERICENTER = 208.9591
MEAN_ANOMALY   = 264.4778

EPHEMERIS_TYPE = 0
CLASSIFICATION_TYPE = U
NORAD_CAT_ID   = 27601
ELEMENT_SET_NO = 999
REV_AT_EPOCH   = 21179
BSTAR          = .10143E-3
MEAN_MOTION_DOT = .248E-5
MEAN_MOTION_DDOT = 0

CCSDS_OMM_VERS = 2.0
CREATION_DATE  = 
ORIGINATOR     = 

OBJECT_NAME    = CZ-4B R/B
OBJECT_ID      = 2003-049C
CENTER_NAME    = EARTH
REF_FRAME      = TEME
TIME_SYSTEM    = UTC
MEAN_ELEMENT_THEORY = SGP/SGP4

EPOCH          = 2026-02-21T11:57:13.880448
MEAN_MOTION    = 14.55001841
ECCENTRICITY   = .0047023
INCLINATION    = 98.6864
RA_OF_ASC_NODE = 46.7699
ARG_OF_PERICENTER = 281.5286
MEAN_ANOMALY   = 78.0632

EPHEMERIS_TYPE = 0
CLASSIFICATION_TYPE = U
NORAD_CAT_ID   = 28059
ELEMENT_SET_NO = 999
REV_AT_EPOCH   = 18424
BSTAR          = .96613E-4
MEAN_MOTION_DOT = .37E-5
MEAN_MOTION_DDOT = 0

CCSDS_OMM_VERS = 2.0
CREATION_DATE  = 
ORIGINATOR     = 

OBJECT_NAME    = CZ-2C R/B
OBJECT_ID      = 2004-012C
CENTER_NAME    = EARTH
REF_FRAME      = TEME
TIME_SYSTEM    = UTC
MEAN_ELEMENT_THEORY = SGP/SGP4

EPOCH          = 2026-02-21T17:40:39.761184
MEAN_MOTION    = 15.62531478
ECCENTRICITY   = .0014434
INCLINATION    = 97.7268
RA_OF_ASC_NODE = 116.5398
ARG_OF_PERICENTER = 12.9906
MEAN_ANOMALY   = 347.1720

EPHEMERIS_TYPE = 0
CLASSIFICATION_TYPE = U
NORAD_CAT_ID   = 28222
ELEMENT_SET_NO = 999
REV_AT_EPOCH   = 20178
BSTAR          = .51441E-3
MEAN_MOTION_DOT = .46082E-3
MEAN_MOTION_DDOT = 0

CCSDS_OMM_VERS = 2.0
CREATION_DATE  = 
ORIGINATOR     = 

OBJECT_NAME    = SL-16 R/B
OBJECT_ID      = 2004-021B
CENTER_NAME    = EARTH
REF_FRAME      = TEME
TIME_SYSTEM    = UTC
MEAN_ELEMENT_THEORY = SGP/SGP4

EPOCH          = 2026-02-21T16:30:54.583200
MEAN_MOTION    = 14.14597795
ECCENTRICITY   = .0003301
INCLINATION    = 70.9989
RA_OF_ASC_NODE = 266.0752
ARG_OF_PERICENTER = 46.7466
MEAN_ANOMALY   = 313.3932

EPHEMERIS_TYPE = 0
CLASSIFICATION_TYPE = U
NORAD_CAT_ID   = 28353
ELEMENT_SET_NO = 999
REV_AT_EPOCH   = 12057
BSTAR          = .13642E-3
MEAN_MOTION_DOT = .215E-5
MEAN_MOTION_DDOT = 0

CCSDS_OMM_VERS = 2.0
CREATION_DATE  = 
ORIGINATOR     = 

OBJECT_NAME    = CZ-4B R/B
OBJECT_ID      = 2004-035C
CENTER_NAME    = EARTH
REF_FRAME      = TEME
TIME_SYSTEM    = UTC
MEAN_ELEMENT_THEORY = SGP/SGP4

EPOCH          = 2026-02-21T14:42:04.129920
MEAN_MOTION    = 15.28739770
ECCENTRICITY   = .0033041
INCLINATION    = 97.3522
RA_OF_ASC_NODE = 87.0495
ARG_OF_PERICENTER = 28.8079
MEAN_ANOMALY   = 331.4976

EPHEMERIS_TYPE = 0
CLASSIFICATION_TYPE = U
NORAD_CAT_ID   = 28415
ELEMENT_SET_NO = 999
REV_AT_EPOCH   = 17745
BSTAR          = .25221E-3
MEAN_MOTION_DOT = .7085E-4
MEAN_MOTION_DDOT = 0

CCSDS_OMM_VERS = 2.0
CREATION_DATE  = 
ORIGINATOR     = 

OBJECT_NAME    = CZ-2C R/B
OBJECT_ID      = 2004-046B
CENTER_NAME    = EARTH
REF_FRAME      = TEME
TIME_SYSTEM    = UTC
MEAN_ELEMENT_THEORY = SGP/SGP4

EPOCH          = 2026-02-21T17:00:38.304288
MEAN_MOTION    = 14.26986136
ECCENTRICITY   = .0138887
INCLINATION    = 98.1990
RA_OF_ASC_NODE = 328.6860
ARG_OF_PERICENTER = 201.7022
MEAN_ANOMALY   = 157.8239

EPHEMERIS_TYPE = 0
CLASSIFICATION_TYPE = U
NORAD_CAT_ID   = 28480
ELEMENT_SET_NO = 999
REV_AT_EPOCH   = 10622
BSTAR          = .56089E-4
MEAN_MOTION_DOT = .11E-5
MEAN_MOTION_DDOT = 0

CCSDS_OMM_VERS = 2.0
CREATION_DATE  = 
ORIGINATOR     = 

OBJECT_NAME    = ARIANE 5 R/B
OBJECT_ID      = 2004-049H
CENTER_NAME    = EARTH
REF_FRAME      = TEME
TIME_SYSTEM    = UTC
MEAN_ELEMENT_THEORY = SGP/SGP4

EPOCH          = 2026-02-21T11:08:18.599424
MEAN_MOTION    = 14.85232069
ECCENTRICITY   = .00850261
INCLINATION    = 98.2598
RA_OF_ASC_NODE = 220.3168
ARG_OF_PERICENTER = 44.3149
MEAN_ANOMALY   = 316.4830

EPHEMERIS_TYPE = 0
CLASSIFICATION_TYPE = U
NORAD_CAT_ID   = 28499
ELEMENT_SET_NO = 999
REV_AT_EPOCH   = 14338
BSTAR          = .88500847E-4
MEAN_MOTION_DOT = .745E-5
MEAN_MOTION_DDOT = 0

CCSDS_OMM_VERS = 2.0
CREATION_DATE  = 
ORIGINATOR     = 

OBJECT_NAME    = CZ-2D R/B
OBJECT_ID      = 2005-024B
CENTER_NAME    = EARTH
REF_FRAME      = TEME
TIME_SYSTEM    = UTC
MEAN_ELEMENT_THEORY = SGP/SGP4

EPOCH          = 2026-02-21T14:27:09.813888
MEAN_MOTION    = 15.58610867
ECCENTRICITY   = .0007531
INCLINATION    = 97.3614
RA_OF_ASC_NODE = 67.1773
ARG_OF_PERICENTER = 85.1202
MEAN_ANOMALY   = 275.0914

EPHEMERIS_TYPE = 0
CLASSIFICATION_TYPE = U
NORAD_CAT_ID   = 28738
ELEMENT_SET_NO = 999
REV_AT_EPOCH   = 13727
BSTAR          = .46736E-3
MEAN_MOTION_DOT = .35856E-3
MEAN_MOTION_DDOT = 0

