IDEFIX & ARIANE 42P R/B 
1 27422U 02021B   26052.69388186  .00000252  00000+0  11221-3 0  9994
2 27422  98.5855 351.4929 0010793 231.9551 128.0659 14.31013616241732
AQUA                    
1 27424U 02022A   26052.86808296  .00000894  00000+0  18836-3 0  9996
2 27424  98.4146  19.9486 0001020  47.2205 340.3777 14.61933631266421
CZ-4B R/B               
1 27432U 02024C   26052.74261421  .00000013  00000+0  29190-4 0  9996
2 27432  98.8878 106.2269 0051037  68.9257  40.0490 14.14544570226986
MIDORI II (ADEOS-II)    
1 27597U 02056A   26052.49251909  .00000240  00000+0  11204-3 0  9993
2 27597  98.7741  10.8613 0002059  65.4406 294.6990 14.29271781207985
H-2A R/B                
1 27601U 02056E   26052.52683544  .00000248  00000+0  10143-3 0  9996
2 27601  98.3174  13.5108 0069502 208.9591 264.4778 14.33748645211797
CZ-4B R/B               
1 28059U 03049C   26052.49807732  .00000370  00000+0  96613-4 0  9993
2 28059  98.6864  46.7699 0047023 281.5286  78.0632 14.55001841184240
CZ-2C R/B               
1 28222U 04012C   26052.73657131  .00046082  00000+0  51441-3 0  9998
2 28222  97.7268 116.5398 0014434  12.9906 347.1720 15.62531478201787
SL-16 R/B               
1 28353U 04021B   26052.68813175  .00000215  00000+0  13642-3 0  9998
2 28353  70.9989 266.0752 0003301  46.7466 313.3932 14.14597795120574
CZ-4B R/B               
1 28415U 04035C   26052.61254780  .00007085  00000+0  25221-3 0  9994
2 28415  97.3522  87.0495 0033041  28.8079 331.4976 15.28739770177454
CZ-2C R/B               
1 28480U 04046B   26052.70877667  .00000110  00000+0  56089-4 0  9992
2 28480  98.1990 328.6860 0138887 201.7022 157.8239 14.26986136106224
ARIANE 5 R/B            
1 28499U 04049H   26052.46410416  .00000745  00000+0  88501-4 0  9991
2 28499  98.2598 220.3168 0085026  44.3149 316.4830 14.85232069143387
CZ-2D R/B               
1 28738U 05024B   26052.60219692  .00035856  00000+0  46736-3 0  9994
2 28738  97.3614  67.1773 0007531  85.1202 275.0914 15.58610867137270
